    meanmotion => '14.34403542',
    inclination => '100.2214',
    number => '4',
    argperigee => '59.0925',
    mm1 => '3.914e-05',
    mm2 => '0',
    bstar => '0.0013991',
    id => '26093',
    elset => '41',
    epoch => '75.09738477'
  },
  UNK4 => {
    orbit => '417',
    raan => '280.2847',
    meananomaly => '302.9942',
    eccentricity => '0.003787',
    meanmotion => '14.34342323',
    inclination => '100.2222',
    number => '4',
    argperigee => '57.489',
    mm1 => '2.202e-05',
    mm2 => '0',
    bstar => '0.00079759',
    id => '26094',
    elset => '22',
    epoch => '75.02817116'
  },
  'AO-16' => {
    orbit => '52959',
    raan => '152.2805',
    meananomaly => '220.9078',
    eccentricity => '0.0018994',
    meanmotion => '14.30403398',
    inclination => '98.4441',
    number => '90005',
    argperigee => '139.3478',
    mm1 => '7.26e-06',
    mm2 => '0',
    bstar => '0.00029492',
    id => '20439',
    elset => '303',
    epoch => '76.1773729'
  },
  'SICH-1' => {
    orbit => '24429',
    raan => '20.8053',
    meananomaly => '71.3212',
    eccentricity => '0.0025334',
    meanmotion => '14.75057253',
    inclination => '82.5294',
    number => '95046',
    argperigee => '288.5239',
    mm1 => '3.785e-05',
    mm2 => '0',
    bstar => '0.00055614',
    id => '23657',
    elset => '442',
    epoch => '75.89971643'
  },
  GRO => {
    orbit => '37903',
    raan => '259.3084',
    meananomaly => '297.6646',
    eccentricity => '0.0005035',
    meanmotion => '15.25595337',
    inclination => '28.4577',
    number => '91027',
    argperigee => '62.445',
    mm1 => '0.00011373',
    mm2 => '0',
    bstar => '0.0004263',
    id => '21225',
    elset => '788',
    epoch => '75.14126322'
  },
  'DO-17' => {
    orbit => '52958',
    raan => '153.7433',
    meananomaly => '230.1975',
    eccentricity => '0.0011623',
    meanmotion => '14.30578756',
    inclination => '98.4608',
    number => '90005',
    argperigee => '130.023',
    mm1 => '7.82e-06',
    mm2 => '0',
    bstar => '0.0003158',
    id => '20440',
    elset => '301',
    epoch => '75.77698213'
  },
  'GO-32' => {
    orbit => '8730',
    raan => '151.4478',
    meananomaly => '330.5374',
    eccentricity => '0.0002033',
    meanmotion => '14.22349223',
    inclination => '98.7301',
    number => '98043',
    argperigee => '29.5934',
    mm1 => '-4.4e-07',
    mm2 => '0',
    bstar => '0',
    id => '25397',
    elset => '275',
    epoch => '75.20036414'
  },
  'OKEAN-0' => {
    orbit => '3569',
    raan => '134.3076',
    meananomaly => '183.7568',
    eccentricity => '0.0001417',
    meanmotion => '14.69939516',
    inclination => '98.0152',
    number => '99039',
    argperigee => '176.3648',
    mm1 => '1.798e-05',
    mm2 => '0',
    bstar => '0.00030838',
    id => '25860',
    elset => '308',
    epoch => '76.20315235'
  },
  OPAL => {
    orbit => '688',
    raan => '280.3797',
    meananomaly => '304.6814',
    eccentricity => '0.0038081',
    meanmotion => '14.34200204',
    inclination => '100.2291',
    number => '4',
    argperigee => '55.7964',
    mm1 => '7.03e-06',
    mm2 => '0',
    bstar => '0.00026939',
    id => '26063',
    elset => '46',
    epoch => '75.10024777'
  },
  FENGYUN1 => {
    orbit => '4370',
    raan => '118.9721',
    meananomaly => '200.4835',
    eccentricity => '0.0014841',
    meanmotion => '14.10286672',
    inclination => '98.7471',
    number => '99025',
    argperigee => '159.693',
    mm1 => '-4.3e-07',
    mm2 => '0',
    bstar => '-2.6854e-07',
    id => '25730',
    elset => '84',
    epoch => '75.0853664'
  },
  'OKEAN-4' => {
    orbit => '29195',
    raan => '240.675',
    meananomaly => '42.6902',
    eccentricity => '0.0024857',
    meanmotion => '14.75611533',
    inclination => '82.5392',
    number => '94066',
    argperigee => '317.236',
    mm1 => '2.46e-05',
    mm2 => '0',
    bstar => '0.00035577',
    id => '23317',
    elset => '546',
    epoch => '75.08130676'
  },
  'LO-19' => {
    orbit => '52952',
    raan => '154.2816',
    meananomaly => '228.9627',
    eccentricity => '0.0012249',
    meanmotion => '14.30639882',
    inclination => '98.471',
    number => '90005',
    argperigee => '131.2614',
    mm1 => '8.01e-06',
    mm2 => '0',
    bstar => '0.00032266',
    id => '20442',
    elset => '321',
    epoch => '75.12731173'
  },
  HUBBLE => {
    orbit => '34253',
    raan => '107.0225',
    meananomaly => '165.0974',
    eccentricity => '0.0014691',
    meanmotion => '14.89812868',
    inclination => '28.4665',
    number => '90037',
    argperigee => '194.9171',
    mm1 => '5.955e-05',
    mm2 => '0',
    bstar => '0.00059002',
    id => '20580',
    elset => '305',
    epoch => '76.24559505'
  },
  'UO-11' => {
    orbit => '85843',
    raan => '39.7845',
    meananomaly => '313.013',
    eccentricity => '0.0012723',
    meanmotion => '14.71532812',
    inclination => '97.9709',
    number => '84021',
    argperigee => '47.209',
    mm1 => '4.456e-05',
    mm2 => '0',
    bstar => '0.00072435',
    id => '14781',
    elset => '270',
    epoch => '74.89397072'
  },
  'PO-34' => {
    orbit => '7586',
    raan => '96.857',
    meananomaly => '11.9713',
    eccentricity => '0.0006484',
    meanmotion => '15.05096573',
    inclination => '28.4612',
    number => '98064',
    argperigee => '348.0696',
    mm1 => '4.913e-05',
    mm2 => '0',
    bstar => '0.00032488',
    id => '25520',
    elset => '157',
    epoch => '76.23736891'
  },
  'TO-31' => {
    orbit => '8744',
    raan => '152.6699',
    meananomaly => '1.1387',
    eccentricity => '0.0002751',
    meanmotion => '14.22565334',
    inclination => '98.7259',
    number => '98043',
    argperigee => '358.9861',
    mm1 => '-4.4e-07',
    mm2 => '0',
    bstar => '0',
    id => '25396',
    elset => '277',
    epoch => '76.26922817'
  },
  'SO-33' => {
    orbit => '7258',
    raan => '57.3304',
    meananomaly => '11.168',
    eccentricity => '0.0366126',
    meanmotion => '14.24539757',
    inclination => '31.441',
    number => '98061',
    argperigee => '348.0441',
    mm1 => '3.147e-05',
    mm2 => '0',
    bstar => '0.00064785',
    id => '25509',
    elset => '126',
    epoch => '76.37070884'
  },
  'UO-14' => {
    orbit => '52943',
    raan => '145.3182',
    meananomaly => '231.2388',
    eccentricity => '0.0010976',
    meanmotion => '14.30351636',
    inclination => '98.4215',
    number => '90005',
    argperigee => '128.9774',
    mm1 => '6.54e-06',
    mm2 => '0',
    bstar => '0.00026783',
    id => '20437',
    elset => '521',
    epoch => '75.21290497'
  },
  'MET-2/21' => {
    orbit => '33008',
    raan => '343.7552',
    meananomaly => '254.5968',
    eccentricity => '0.0023436',
    meanmotion => '13.83222686',
    inclination => '82.5538',
    number => '93055',
    argperigee => '105.7786',
    mm1 => '3.87e-06',
    mm2 => '0',
    bstar => '0.00033881',
    id => '22782',
    elset => '817',
    epoch => '75.09426414'
  },
  'SO-35' => {
    orbit => '5554',
    raan => '302.2615',
    meananomaly => '244.7243',
    eccentricity => '0.0153978',
    meanmotion => '14.41165231',
    inclination => '96.4641',
    number => '99008',
    argperigee => '116.9766',
    mm1 => '9.57e-06',
    mm2 => '0',
    bstar => '0.00026542',
    id => '25636',
    elset => '195',
    epoch => '75.15591089'
  },
  'RS-15' => {
    orbit => '21474',
    raan => '334.9105',
    meananomaly => '53.0053',
    eccentricity => '0.016593',
    meanmotion => '11.27534975',
    inclination => '64.8221',
    number => '94085',
    argperigee => '305.549',
    mm1 => '-4.2e-07',
    mm2 => '0',
    bstar => '4.2773e-06',
    id => '23439',
    elset => '447',
    epoch => '73.71066575'
  },
  'UO-36' => {
    orbit => '4862',
    raan => '32.8991',
    meananomaly => '48.8334',
    eccentricity => '0.0038047',
    meanmotion => '14.73561112',
    inclination => '64.5634',
    number => '99021',
    argperigee => '310.946',
    mm1 => '-8.14e-06',
    mm2 => '0',
    bstar => '-0.00010226',
    id => '25693',
    elset => '189',
    epoch => '76.34706394'
  },
  'WO-18' => {
    orbit => '52949',
    raan => '152.8783',
    meananomaly => '226.9644',
    eccentricity => '0.0012321',
    meanmotion => '14.30504373',
    inclination => '98.464',
    number => '90005',
    argperigee => '133.2569',
    mm1 => '7.57e-06',
    mm2 => '0',
    bstar => '0.00030672',
    id => '20441',
    elset => '336',
    epoch => '75.17694649'
  }
);
1;
